{
  "type": "FeatureCollection",
  "features": [
    {
      "type": "Feature",
      "properties": {
        "norad_id": 57400,
        "name": "TIANMU-1 08",
        "group": "weather",
        "lat": 47.78476682680713,
        "lon": -140.52006920520523,
        "alt_km": 473.4604597774023,
        "timestamp": "2025-12-07T14:37:04.853296+00:00",
        "meta_object_name": "TIANMU-1 08",
        "meta_object_id": "2023-101B",
        "meta_epoch": "2025-12-06T20:45:18.484992",
        "meta_mean_motion": 15.27929578,
        "meta_eccentricity": 0.00075615,
        "meta_inclination": 97.2869,
        "meta_ra_of_asc_node": 30.6439,
        "meta_arg_of_pericenter": 100.181,
        "meta_mean_anomaly": 260.0283,
        "meta_ephemeris_type": 0,
        "meta_classification_type": "U",
        "meta_norad_cat_id": 57400,
        "meta_element_set_no": 999,
        "meta_rev_at_epoch": 13225,
        "meta_bstar": 0.00040486226,
        "meta_mean_motion_dot": 0.00010977,
        "meta_mean_motion_ddot": 0,
        "tle_line1": "1 57400U 23101B   25340.86479728  .00010977  00000+0  40486-3 0  9996",
        "tle_line2": "2 57400  97.2869  30.6439 0007561 100.1810 260.0283 15.27929578132253"
      },
      "geometry": {
        "type": "Point",
        "coordinates": [
          -140.52006920520523,
          47.78476682680713
        ]
      }
    },
    {
      "type": "Feature",
      "properties": {
        "norad_id": 57401,
        "name": "TIANMU-1 09",
        "group": "weather",
        "lat": -23.696622108235058,
        "lon": -152.32981316668796,
        "alt_km": 488.80552199196427,
        "timestamp": "2025-12-07T14:37:04.853306+00:00",
        "meta_object_name": "TIANMU-1 09",
        "meta_object_id": "2023-101C",
        "meta_epoch": "2025-12-06T22:00:43.896672",
        "meta_mean_motion": 15.2795569,
        "meta_eccentricity": 0.00068111,
        "meta_inclination": 97.2824,
        "meta_ra_of_asc_node": 30.2116,
        "meta_arg_of_pericenter": 99.614,
        "meta_mean_anomaly": 260.5869,
        "meta_ephemeris_type": 0,
        "meta_classification_type": "U",
        "meta_norad_cat_id": 57401,
        "meta_element_set_no": 999,
        "meta_rev_at_epoch": 13226,
        "meta_bstar": 0.00041816766,
        "meta_mean_motion_dot": 0.00011348,
        "meta_mean_motion_ddot": 0,
        "tle_line1": "1 57401U 23101C   25340.91717473  .00011348  00000+0  41817-3 0  9997",
        "tle_line2": "2 57401  97.2824  30.2116 0006811  99.6140 260.5869 15.27955690132268"
      },
      "geometry": {
        "type": "Point",
        "coordinates": [
          -152.32981316668796,
          -23.696622108235058
        ]
      }
    },
    {
      "type": "Feature",
      "properties": {
        "norad_id": 57402,
        "name": "TIANMU-1 10",
        "group": "weather",
        "lat": 15.456652836034905,
        "lon": 29.703347113065018,
        "alt_km": 481.98271094876236,
        "timestamp": "2025-12-07T14:37:04.853316+00:00",
        "meta_object_name": "TIANMU-1 10",
        "meta_object_id": "2023-101D",
        "meta_epoch": "2025-12-06T21:15:39.045312",
        "meta_mean_motion": 15.27945898,
        "meta_eccentricity": 0.00085549,
        "meta_inclination": 97.2906,
        "meta_ra_of_asc_node": 31.0246,
        "meta_arg_of_pericenter": 100.4622,
        "meta_mean_anomaly": 259.7583,
        "meta_ephemeris_type": 0,
        "meta_classification_type": "U",
        "meta_norad_cat_id": 57402,
        "meta_element_set_no": 999,
        "meta_rev_at_epoch": 13225,
        "meta_bstar": 0.00044473489,
        "meta_mean_motion_dot": 0.00012075,
        "meta_mean_motion_ddot": 0,
        "tle_line1": "1 57402U 23101D   25340.88586858  .00012075  00000+0  44473-3 0  9994",
        "tle_line2": "2 57402  97.2906  31.0246 0008554 100.4622 259.7583 15.27945898132256"
      },
      "geometry": {
        "type": "Point",
        "coordinates": [
          29.703347113065018,
          15.456652836034905
        ]
      }
    },
    {
      "type": "Feature",
      "properties": {
        "norad_id": 57490,
        "name": "FENGYUN 3F",
        "group": "weather",
        "lat": 69.02626959965666,
        "lon": -106.44492225063783,
        "alt_km": 818.540931210784,
        "timestamp": "2025-12-07T14:37:04.853326+00:00",
        "meta_object_name": "FENGYUN 3F",
        "meta_object_id": "2023-111A",
        "meta_epoch": "2025-12-06T21:11:37.574592",
        "meta_mean_motion": 14.19891245,
        "meta_eccentricity": 6.639e-05,
        "meta_inclination": 98.7093,
        "meta_ra_of_asc_node": 49.2708,
        "meta_arg_of_pericenter": 90.2781,
        "meta_mean_anomaly": 269.8471,
        "meta_ephemeris_type": 0,
        "meta_classification_type": "U",
        "meta_norad_cat_id": 57490,
        "meta_element_set_no": 999,
        "meta_rev_at_epoch": 12157,
        "meta_bstar": 0.00011807448,
        "meta_mean_motion_dot": 2.07e-06,
        "meta_mean_motion_ddot": 0,
        "tle_line1": "1 57490U 23111A   25340.88307378  .00000207  00000+0  11807-3 0  9999",
        "tle_line2": "2 57490  98.7093  49.2708 0000663  90.2781 269.8471 14.19891245121572"
      },
      "geometry": {
        "type": "Point",
        "coordinates": [
          -106.44492225063783,
          69.02626959965666
        ]
      }
    },
    {
      "type": "Feature",
      "properties": {
        "norad_id": 58584,
        "name": "ARKTIKA-M 2",
        "group": "weather",
        "lat": 62.6277733648239,
        "lon": -81.92269939471474,
        "alt_km": 37542.282146836755,
        "timestamp": "2025-12-07T14:37:04.853338+00:00",
        "meta_object_name": "ARKTIKA-M 2",
        "meta_object_id": "2023-198A",
        "meta_epoch": "2025-12-03T08:34:19.284960",
        "meta_mean_motion": 2.00605176,
        "meta_eccentricity": 0.68642509,
        "meta_inclination": 63.2223,
        "meta_ra_of_asc_node": 175.9121,
        "meta_arg_of_pericenter": 268.1397,
        "meta_mean_anomaly": 18.842,
        "meta_ephemeris_type": 0,
        "meta_classification_type": "U",
        "meta_norad_cat_id": 58584,
        "meta_element_set_no": 999,
        "meta_rev_at_epoch": 1439,
        "meta_bstar": 0,
        "meta_mean_motion_dot": 2.24e-06,
        "meta_mean_motion_ddot": 0,
        "tle_line1": "1 58584U 23198A   25337.35716765  .00000224  00000+0  00000+0 0  9999",
        "tle_line2": "2 58584  63.2223 175.9121 6864250 268.1397  18.8420  2.00605176 14390"
      },
      "geometry": {
        "type": "Point",
        "coordinates": [
          -81.92269939471474,
          62.6277733648239
        ]
      }
    },
    {
      "type": "Feature",
      "properties": {
        "norad_id": 58645,
        "name": "TIANMU-1 11",
        "group": "weather",
        "lat": -76.56571767047245,
        "lon": 148.56058815377577,
        "alt_km": 497.8701797312724,
        "timestamp": "2025-12-07T14:37:04.853351+00:00",
        "meta_object_name": "TIANMU-1 11",
        "meta_object_id": "2023-205A",
        "meta_epoch": "2025-12-06T21:43:58.531584",
        "meta_mean_motion": 15.24493464,
        "meta_eccentricity": 0.00084703,
        "meta_inclination": 97.3603,
        "meta_ra_of_asc_node": 0.6317,
        "meta_arg_of_pericenter": 333.7781,
        "meta_mean_anomaly": 26.3027,
        "meta_ephemeris_type": 0,
        "meta_classification_type": "U",
        "meta_norad_cat_id": 58645,
        "meta_element_set_no": 999,
        "meta_rev_at_epoch": 10820,
        "meta_bstar": 0.00038339817,
        "meta_mean_motion_dot": 9.365e-05,
        "meta_mean_motion_ddot": 0,
        "tle_line1": "1 58645U 23205A   25340.90553856  .00009365  00000+0  38340-3 0  9998",
        "tle_line2": "2 58645  97.3603   0.6317 0008470 333.7781  26.3027 15.24493464108209"
      },
      "geometry": {
        "type": "Point",
        "coordinates": [
          148.56058815377577,
          -76.56571767047245
        ]
      }
    },
    {
      "type": "Feature",
      "properties": {
        "norad_id": 58646,
        "name": "TIANMU-1 12",
        "group": "weather",
        "lat": 65.6929318895488,
        "lon": -162.24261735206764,
        "alt_km": 490.1237296523095,
        "timestamp": "2025-12-07T14:37:04.853361+00:00",
        "meta_object_name": "TIANMU-1 12",
        "meta_object_id": "2023-205B",
        "meta_epoch": "2025-12-06T22:22:09.551136",
        "meta_mean_motion": 15.24409833,
        "meta_eccentricity": 0.00062852,
        "meta_inclination": 97.3591,
        "meta_ra_of_asc_node": 0.4652,
        "meta_arg_of_pericenter": 318.2593,
        "meta_mean_anomaly": 41.8164,
        "meta_ephemeris_type": 0,
        "meta_classification_type": "U",
        "meta_norad_cat_id": 58646,
        "meta_element_set_no": 999,
        "meta_rev_at_epoch": 10819,
        "meta_bstar": 0.00042463973,
        "meta_mean_motion_dot": 0.00010351,
        "meta_mean_motion_ddot": 0,
        "tle_line1": "1 58646U 23205B   25340.93205499  .00010351  00000+0  42464-3 0  9998",
        "tle_line2": "2 58646  97.3591   0.4652 0006285 318.2593  41.8164 15.24409833108196"
      },
      "geometry": {
        "type": "Point",
        "coordinates": [
          -162.24261735206764,
          65.6929318895488
        ]
      }
    }
  ]
}